NORAD_CAT_ID,OBJECT_NAME,OBJECT_TYPE,EPOCH,MEAN_MOTION,ECCENTRICITY,INCLINATION,RA_OF_ASC_NODE,ARG_OF_PERICENTER,MEAN_ANOMALY,BSTAR,MEAN_MOTION_DOT,MEAN_MOTION_DDOT,TLE_LINE0,TLE_LINE1,TLE_LINE2,SEMIMAJOR_AXIS,PERIOD,APOGEE,PERIGEE,DECAYED
52000.0,STARLINK-3653,PAYLOAD,2023-11-02 05:05:22,15.08850351,0.0001591,53.2174,272.8913,90.8926,269.2248,0.00032371,4.869e-05,0.0,0 STARLINK-3653,1 52000U 22025AW  23306.21206937  .00004869  00000-0  32371-3 0  9998,2 52000  53.2174 272.8913 0001591  90.8926 269.2248 15.08850351 92856,6917.849,95.437,540.814,538.613,0.0
52000.0,STARLINK-3653,PAYLOAD,2023-11-02 22:34:37,15.08838888,0.0001539,53.2172,269.6207,91.0351,269.0817,3.7378e-05,3.07e-06,0.0,0 STARLINK-3653,1 52000U 22025AW  23306.94071195  .00000307  00000-0  37378-4 0  9990,2 52000  53.2172 269.6207 0001539  91.0351 269.0817 15.08838888 91435,6917.884,95.438,540.813,538.684,0.0
52000.0,STARLINK-3653,PAYLOAD,2023-11-03 03:20:46,15.08848645,0.0001579,53.217,268.7287,95.3295,264.7878,0.00023152,3.399e-05,0.0,0 STARLINK-3653,1 52000U 22025AW  23307.13942924  .00003399  00000-0  23152-3 0  9997,2 52000  53.2170 268.7287 0001579  95.3295 264.7878 15.08848645 92992,6917.854,95.437,540.811,538.627,0.0
52000.0,STARLINK-3653,PAYLOAD,2023-11-03 14:28:28,15.0884454,0.0002306,53.2177,266.645,84.3988,275.7267,0.00023904,3.519e-05,0.0,0 STARLINK-3653,1 52000U 22025AW  23307.60311133  .00003519  00000-0  23904-3 0  9990,2 52000  53.2177 266.6450 0002306  84.3988 275.7267 15.08844540 91537,6917.867,95.437,541.327,538.136,0.0
52000.0,STARLINK-3653,PAYLOAD,2023-11-04 03:11:34,15.08834568,0.0001671,53.2168,264.2673,90.3238,269.7945,0.00019928,2.884e-05,0.0,0 STARLINK-3653,1 52000U 22025AW  23308.13303334  .00002884  00000-0  19928-3 0  9998,2 52000  53.2168 264.2673 0001671  90.3238 269.7945 15.08834568 93141,6917.897,95.438,540.918,538.606,0.0
52000.0,STARLINK-3653,PAYLOAD,2023-11-04 14:19:16,15.08834153,0.0001874,53.2172,262.1846,84.9017,275.2189,9.5939e-05,1.239e-05,0.0,0 STARLINK-3653,1 52000U 22025AW  23308.59671727  .00001239  00000-0  95939-4 0  9992,2 52000  53.2172 262.1846 0001874  84.9017 275.2189 15.08834153 91683,6917.898,95.438,541.06,538.467,0.0
52000.0,STARLINK-3653,PAYLOAD,2023-11-05 14:10:02,15.08863933,0.0001408,53.217,257.7261,88.8163,271.299,0.00088134,0.00013775,0.0,0 STARLINK-3653,1 52000U 22025AW  23309.59030926  .00013775  00000-0  88134-3 0  9999,2 52000  53.2170 257.7261 0001408  88.8163 271.2990 15.08863933 91831,6917.807,95.436,540.646,538.698,0.0
52000.0,STARLINK-3653,PAYLOAD,2023-11-06 02:53:06,15.08911097,0.000124,53.2177,255.3455,112.9161,247.1962,0.0032962,0.00052666,0.0,0 STARLINK-3653,1 52000U 22025AW  23310.12021385  .00052666  00000-0  32962-2 0  9998,2 52000  53.2177 255.3455 0001240 112.9161 247.1962 15.08911097 93443,6917.663,95.433,540.386,538.67,0.0
52000.0,STARLINK-3653,PAYLOAD,2023-11-06 06:03:52,15.08936532,0.0001744,53.2158,254.7493,109.0435,251.0746,0.0040091,0.00064269,0.0,0 STARLINK-3653,1 52000U 22025AW  23310.25268656  .00064269  00000-0  40091-2 0  9990,2 52000  53.2158 254.7493 0001744 109.0435 251.0746 15.08936532 93464,6917.585,95.431,540.657,538.244,0.0
52000.0,STARLINK-3653,PAYLOAD,2023-11-06 14:00:48,15.08860318,0.0003022,53.2167,253.264,83.8958,276.2378,0.00012366,1.681e-05,0.0,0 STARLINK-3653,1 52000U 22025AW  23310.58389657  .00001681  00000-0  12366-3 0  9995,2 52000  53.2167 253.2640 0003022  83.8958 276.2378 15.08860318 91985,6917.818,95.436,541.774,537.593,0.0
52000.0,STARLINK-3653,PAYLOAD,2023-11-07 02:43:55,15.08791338,0.0001577,53.217,250.8865,89.8381,270.2791,-0.0013576,-0.00021801,0.0,0 STARLINK-3653,1 52000U 22025AW  23311.11383313 -.00021801  00000-0 -13576-2 0  9999,2 52000  53.2170 250.8865 0001577  89.8381 270.2791 15.08791338 93597,6918.029,95.441,540.985,538.803,0.0
52000.0,STARLINK-3653,PAYLOAD,2023-11-07 05:54:42,15.08772442,0.0001723,53.2164,250.29,90.9077,269.2112,0.00061618,9.514e-05,0.0,0 STARLINK-3653,1 52000U 22025AW  23311.24632284  .00009514  00000-0  61618-3 0  9993,2 52000  53.2164 250.2900 0001723  90.9077 269.2112 15.08772442 92085,6918.087,95.442,541.144,538.76,0.0
52000.0,STARLINK-3653,PAYLOAD,2023-11-08 02:34:44,15.08846836,0.0001669,53.2165,246.4254,94.8693,265.249,0.0025623,0.00040735,0.0,0 STARLINK-3653,1 52000U 22025AW  23312.10745736  .00040735  00000-0  25623-2 0  9991,2 52000  53.2165 246.4254 0001669  94.8693 265.2490 15.08846836 93749,6917.859,95.437,540.879,538.57,0.0
52000.0,STARLINK-3653,PAYLOAD,2023-11-09 02:25:30,15.08867484,0.0001753,53.2174,241.968,99.6712,260.4478,0.00089729,0.00014032,0.0,0 STARLINK-3653,1 52000U 22025AW  23313.10104795  .00014032  00000-0  89729-3 0  9995,2 52000  53.2174 241.9680 0001753  99.6712 260.4478 15.08867484 93892,6917.796,95.436,540.874,538.449,0.0
52000.0,STARLINK-3653,PAYLOAD,2023-11-10 02:16:16,15.0885768,0.0001387,53.2173,237.5037,87.278,272.8371,0.00034057,5.139e-05,0.0,0 STARLINK-3653,1 52000U 22025AW  23314.09464027  .00005139  00000-0  34057-3 0  9993,2 52000  53.2173 237.5037 0001387  87.2780 272.8371 15.08857680 94043,6917.826,95.436,540.651,538.732,0.0
52000.0,STARLINK-3653,PAYLOAD,2023-11-10 11:48:35,15.08855508,0.0001324,53.2171,235.7206,83.2341,276.8801,0.00022322,3.268e-05,0.0,0 STARLINK-3653,1 52000U 22025AW  23314.49207750  .00003268  00000-0  22322-3 0  9998,2 52000  53.2171 235.7206 0001324  83.2341 276.8801 15.08855508 92574,6917.833,95.437,540.614,538.782,0.0
52000.0,STARLINK-3653,PAYLOAD,2023-11-11 03:42:26,15.0884948,0.0001547,53.2167,232.7467,87.0439,273.073,0.00016227,2.296e-05,0.0,0 STARLINK-3653,1 52000U 22025AW  23315.15447609  .00002296  00000-0  16227-3 0  9998,2 52000  53.2167 232.7467 0001547  87.0439 273.0730 15.08849480 94206,6917.851,95.437,540.787,538.646,0.0
52000.0,STARLINK-3653,PAYLOAD,2023-11-11 11:39:22,15.08837367,0.0001678,53.217,231.2583,87.9474,272.171,0.00026516,3.934e-05,0.0,0 STARLINK-3653,1 52000U 22025AW  23315.48568210  .00003934  00000-0  26516-3 0  9998,2 52000  53.2170 231.2583 0001678  87.9474 272.1710 15.08837367 94250,6917.888,95.438,540.914,538.593,0.0
52000.0,STARLINK-3653,PAYLOAD,2023-11-11 21:11:41,15.08836514,0.0001622,53.2174,229.4735,92.4457,267.672,6.324e-05,7.18e-06,0.0,0 STARLINK-3653,1 52000U 22025AW  23315.88312276  .00000718  00000-0  63240-4 0  9994,2 52000  53.2174 229.4735 0001622  92.4457 267.6720 15.08836514 92782,6917.891,95.438,540.878,538.634,0.0
52000.0,STARLINK-3653,PAYLOAD,2023-11-12 11:30:09,15.08841642,0.0001412,53.2172,226.7993,79.2524,280.8627,4.8308e-05,4.81e-06,0.0,0 STARLINK-3653,1 52000U 22025AW  23316.47928226  .00000481  00000-0  48308-4 0  9993,2 52000  53.2172 226.7993 0001412  79.2524 280.8627 15.08841642 92872,6917.875,95.437,540.717,538.764,0.0
52000.0,STARLINK-3653,PAYLOAD,2023-11-12 22:37:52,15.08836119,0.0001499,53.2171,224.7183,78.432,281.684,0.00010202,1.336e-05,0.0,0 STARLINK-3653,1 52000U 22025AW  23316.94296739  .00001336  00000-0  10202-3 0  9993,2 52000  53.2171 224.7183 0001499  78.4320 281.6840 15.08836119 92947,6917.892,95.438,540.794,538.72,0.0
52000.0,STARLINK-3653,PAYLOAD,2023-11-13 00:13:15,15.08840075,0.0001544,53.2172,224.4197,81.5725,278.5442,4.1682e-05,3.75e-06,0.0,0 STARLINK-3653,1 52000U 22025AW  23317.00920503  .00000375  00000-0  41682-4 0  9993,2 52000  53.2172 224.4197 0001544  81.5725 278.5442 15.08840075 94485,6917.88,95.438,540.813,538.677,0.0
52000.0,STARLINK-3653,PAYLOAD,2023-11-13 11:20:56,15.08850511,0.0001725,53.2181,222.3396,79.2991,280.8195,0.0001779,2.545e-05,0.0,0 STARLINK-3653,1 52000U 22025AW  23317.47288019  .00002545  00000-0  17790-3 0  9996,2 52000  53.2181 222.3396 0001725  79.2991 280.8195 15.08850511 93029,6917.848,95.437,540.907,538.52,0.0
52000.0,STARLINK-3653,PAYLOAD,2023-11-14 11:11:43,15.08841711,0.0001405,53.2173,217.8789,100.4077,259.7074,3.5846e-06,-2.31e-06,0.0,0 STARLINK-3653,1 52000U 22025AW  23318.46647885 -.00000231  00000-0  35846-5 0  9991,2 52000  53.2173 217.8789 0001405 100.4077 259.7074 15.08841711 94701,6917.875,95.437,540.712,538.768,0.0
52000.0,STARLINK-3653,PAYLOAD,2023-11-14 20:44:03,15.08833002,0.0001793,53.2163,216.0924,116.0198,244.0979,-3.6614e-05,-8.71e-06,0.0,0 STARLINK-3653,1 52000U 22025AW  23318.86392582 -.00000871  00000-0 -36614-4 0  9990,2 52000  53.2163 216.0924 0001793 116.0198 244.0979 15.08833002 93231,6917.902,95.438,541.007,538.526,0.0
52000.0,STARLINK-3653,PAYLOAD,2023-11-15 03:05:35,15.08841206,0.0002697,53.2172,214.9037,81.3203,278.8094,9.1392e-05,1.166e-05,0.0,0 STARLINK-3653,1 52000U 22025AW  23319.12888595  .00001166  00000-0  91392-4 0  9994,2 52000  53.2172 214.9037 0002697  81.3203 278.8094 15.08841206 94800,6917.877,95.437,541.607,537.876,0.0
52000.0,STARLINK-3653,PAYLOAD,2023-11-15 20:34:50,15.08840234,0.0001885,53.2174,211.6322,85.0092,275.1116,0.00011212,1.497e-05,0.0,0 STARLINK-3653,1 52000U 22025AW  23319.85752414  .00001497  00000-0  11212-3 0  9993,2 52000  53.2174 211.6322 0001885  85.0092 275.1116 15.08840234 93385,6917.88,95.438,541.049,538.441,0.0
52000.0,STARLINK-3653,PAYLOAD,2023-11-16 02:56:22,15.0884958,0.0001523,53.2168,210.4439,99.3668,260.7496,0.00029369,4.39e-05,0.0,0 STARLINK-3653,1 52000U 22025AW  23320.12248053  .00004390  00000-0  29369-3 0  9991,2 52000  53.2168 210.4439 0001523  99.3668 260.7496 15.08849580 93429,6917.851,95.437,540.77,538.663,0.0
52000.0,STARLINK-3653,PAYLOAD,2023-11-16 17:14:51,15.08835509,0.0001581,53.2176,207.7657,102.8565,257.2604,0.00021519,3.138e-05,0.0,0 STARLINK-3653,1 52000U 22025AW  23320.71864788  .00003138  00000-0  21519-3 0  9993,2 52000  53.2176 207.7657 0001581 102.8565 257.2604 15.08835509 95047,6917.894,95.438,540.853,538.665,0.0
52000.0,STARLINK-3653,PAYLOAD,2023-11-16 23:36:23,15.08839081,0.0001763,53.2158,206.5779,97.6218,262.4974,0.00020477,2.972e-05,0.0,0 STARLINK-3653,1 52000U 22025AW  23320.98360861  .00002972  00000-0  20477-3 0  9992,2 52000  53.2158 206.5779 0001763  97.6218 262.4974 15.08839081 93558,6917.883,95.438,540.968,538.529,0.0
